{
  "norad_id": 65746,
  "name": "STARLINK-34704",
  "history": [
    {
      "epoch": "2026-03-28T20:11:35.225952Z",
      "apogee_km": 475.91703519738985,
      "perigee_km": 474.5082606437645,
      "latitude_deg": 4.2646096698828e-05,
      "longitude_deg": 114.93111917063783,
      "height_km": 475.95391992318446,
      "semi_major_axis_km": 6853.349647920577,
      "eccentricity": 0.00010278,
      "inclination_deg": 53.158,
      "raan_deg": 244.0839,
      "arg_perigee_deg": 77.1256,
      "mean_anomaly_deg": 282.986,
      "mean_motion_rev_day": 15.30200811
    },
    {
      "epoch": "2026-03-29T22:50:29.406336Z",
      "apogee_km": 475.9074407571152,
      "perigee_km": 474.4263047241375,
      "latitude_deg": 5.2890462600915416e-05,
      "longitude_deg": 68.95266540428526,
      "height_km": 475.89901449110573,
      "semi_major_axis_km": 6853.303872740626,
      "eccentricity": 0.00010806,
      "inclination_deg": 53.159,
      "raan_deg": 238.9256,
      "arg_perigee_deg": 77.0373,
      "mean_anomaly_deg": 283.0749,
      "mean_motion_rev_day": 15.30216142
    }
  ]
}